{
  "type": "FeatureCollection",
  "features": [
    {
      "type": "Feature",
      "properties": {
        "norad_id": 34482,
        "name": "COSMOS 2251 DEB",
        "group": "cosmos-2251-debris",
        "lat": 9.756886550706115,
        "lon": 17.437232298970827,
        "alt_km": 663.179820669704,
        "timestamp": "2025-12-24T18:55:56.466350+00:00",
        "meta_object_name": "COSMOS 2251 DEB",
        "meta_object_id": "1993-036UB",
        "meta_epoch": "2025-12-24T00:44:32.909280",
        "meta_mean_motion": 14.69389223,
        "meta_eccentricity": 0.00443528,
        "meta_inclination": 74.036,
        "meta_ra_of_asc_node": 201.7261,
        "meta_arg_of_pericenter": 259.6603,
        "meta_mean_anomaly": 223.0217,
        "meta_ephemeris_type": 0,
        "meta_classification_type": "U",
        "meta_norad_cat_id": 34482,
        "meta_element_set_no": 999,
        "meta_rev_at_epoch": 88353,
        "meta_bstar": 0.0016981938,
        "meta_mean_motion_dot": 0.00010179,
        "meta_mean_motion_ddot": 0,
        "tle_line1": "1 34482U 93036UB  25358.03093645  .00010179  00000+0  16982-2 0  9990",
        "tle_line2": "2 34482  74.0360 201.7261 0044352 259.6603 223.0217 14.69389223883532"
      },
      "geometry": {
        "type": "Point",
        "coordinates": [
          17.437232298970827,
          9.756886550706115
        ]
      }
    },
    {
      "type": "Feature",
      "properties": {
        "norad_id": 34544,
        "name": "COSMOS 2251 DEB",
        "group": "cosmos-2251-debris",
        "lat": 52.89307525902093,
        "lon": -17.89883669663263,
        "alt_km": 1023.6104789050678,
        "timestamp": "2025-12-24T18:55:56.466360+00:00",
        "meta_object_name": "COSMOS 2251 DEB",
        "meta_object_id": "1993-036UE",
        "meta_epoch": "2025-12-22T13:17:43.726848",
        "meta_mean_motion": 13.54671118,
        "meta_eccentricity": 0.03836445,
        "meta_inclination": 73.9138,
        "meta_ra_of_asc_node": 188.1407,
        "meta_arg_of_pericenter": 214.797,
        "meta_mean_anomaly": 178.3987,
        "meta_ephemeris_type": 0,
        "meta_classification_type": "U",
        "meta_norad_cat_id": 34544,
        "meta_element_set_no": 999,
        "meta_rev_at_epoch": 83015,
        "meta_bstar": 0.00039748277,
        "meta_mean_motion_dot": 4.13e-06,
        "meta_mean_motion_ddot": 0,
        "tle_line1": "1 34544U 93036UE  25356.55397832  .00000413  00000+0  39748-3 0  9995",
        "tle_line2": "2 34544  73.9138 188.1407 0383644 214.7970 178.3987 13.54671118830157"
      },
      "geometry": {
        "type": "Point",
        "coordinates": [
          -17.89883669663263,
          52.89307525902093
        ]
      }
    },
    {
      "type": "Feature",
      "properties": {
        "norad_id": 34546,
        "name": "COSMOS 2251 DEB",
        "group": "cosmos-2251-debris",
        "lat": 48.593877002494885,
        "lon": -114.32944751549478,
        "alt_km": 741.7312591831651,
        "timestamp": "2025-12-24T18:55:56.466370+00:00",
        "meta_object_name": "COSMOS 2251 DEB",
        "meta_object_id": "1993-036UG",
        "meta_epoch": "2025-12-24T02:48:03.141792",
        "meta_mean_motion": 14.45454884,
        "meta_eccentricity": 0.00220688,
        "meta_inclination": 74.0293,
        "meta_ra_of_asc_node": 227.9723,
        "meta_arg_of_pericenter": 300.46,
        "meta_mean_anomaly": 214.4673,
        "meta_ephemeris_type": 0,
        "meta_classification_type": "U",
        "meta_norad_cat_id": 34546,
        "meta_element_set_no": 999,
        "meta_rev_at_epoch": 88190,
        "meta_bstar": 0.00049621464,
        "meta_mean_motion_dot": 1.726e-05,
        "meta_mean_motion_ddot": 0,
        "tle_line1": "1 34546U 93036UG  25358.11670303  .00001726  00000+0  49621-3 0  9997",
        "tle_line2": "2 34546  74.0293 227.9723 0022068 300.4600 214.4673 14.45454884881902"
      },
      "geometry": {
        "type": "Point",
        "coordinates": [
          -114.32944751549478,
          48.593877002494885
        ]
      }
    },
    {
      "type": "Feature",
      "properties": {
        "norad_id": 34547,
        "name": "COSMOS 2251 DEB",
        "group": "cosmos-2251-debris",
        "lat": -27.511084322127346,
        "lon": 68.6888624931323,
        "alt_km": 669.6504214744682,
        "timestamp": "2025-12-24T18:55:56.466381+00:00",
        "meta_object_name": "COSMOS 2251 DEB",
        "meta_object_id": "1993-036UH",
        "meta_epoch": "2025-12-23T12:05:02.097600",
        "meta_mean_motion": 14.72566413,
        "meta_eccentricity": 0.00162583,
        "meta_inclination": 74.0313,
        "meta_ra_of_asc_node": 79.7674,
        "meta_arg_of_pericenter": 157.405,
        "meta_mean_anomaly": 202.7841,
        "meta_ephemeris_type": 0,
        "meta_classification_type": "U",
        "meta_norad_cat_id": 34547,
        "meta_element_set_no": 999,
        "meta_rev_at_epoch": 88680,
        "meta_bstar": 0.0018043313,
        "meta_mean_motion_dot": 0.00011487,
        "meta_mean_motion_ddot": 0,
        "tle_line1": "1 34547U 93036UH  25357.50349650  .00011487  00000+0  18043-2 0  9996",
        "tle_line2": "2 34547  74.0313  79.7674 0016258 157.4050 202.7841 14.72566413886800"
      },
      "geometry": {
        "type": "Point",
        "coordinates": [
          68.6888624931323,
          -27.511084322127346
        ]
      }
    },
    {
      "type": "Feature",
      "properties": {
        "norad_id": 34553,
        "name": "COSMOS 2251 DEB",
        "group": "cosmos-2251-debris",
        "lat": -46.44309840948108,
        "lon": 151.43224436865904,
        "alt_km": 701.0387961891538,
        "timestamp": "2025-12-24T18:55:56.466391+00:00",
        "meta_object_name": "COSMOS 2251 DEB",
        "meta_object_id": "1993-036UP",
        "meta_epoch": "2025-12-24T06:14:19.450176",
        "meta_mean_motion": 14.57826174,
        "meta_eccentricity": 0.00190662,
        "meta_inclination": 74.0247,
        "meta_ra_of_asc_node": 169.9724,
        "meta_arg_of_pericenter": 246.5811,
        "meta_mean_anomaly": 169.7479,
        "meta_ephemeris_type": 0,
        "meta_classification_type": "U",
        "meta_norad_cat_id": 34553,
        "meta_element_set_no": 999,
        "meta_rev_at_epoch": 88264,
        "meta_bstar": 0.0012008966,
        "meta_mean_motion_dot": 5.485e-05,
        "meta_mean_motion_ddot": 0,
        "tle_line1": "1 34553U 93036UP  25358.25994734  .00005485  00000+0  12009-2 0  9992",
        "tle_line2": "2 34553  74.0247 169.9724 0019066 246.5811 169.7479 14.57826174882649"
      },
      "geometry": {
        "type": "Point",
        "coordinates": [
          151.43224436865904,
          -46.44309840948108
        ]
      }
    },
    {
      "type": "Feature",
      "properties": {
        "norad_id": 34554,
        "name": "COSMOS 2251 DEB",
        "group": "cosmos-2251-debris",
        "lat": -72.42968382035761,
        "lon": -147.85991117013518,
        "alt_km": 763.6162754913521,
        "timestamp": "2025-12-24T18:55:56.466401+00:00",
        "meta_object_name": "COSMOS 2251 DEB",
        "meta_object_id": "1993-036UQ",
        "meta_epoch": "2025-12-24T04:59:10.648896",
        "meta_mean_motion": 14.37960324,
        "meta_eccentricity": 0.00235016,
        "meta_inclination": 74.039,
        "meta_ra_of_asc_node": 277.8748,
        "meta_arg_of_pericenter": 338.0464,
        "meta_mean_anomaly": 172.7523,
        "meta_ephemeris_type": 0,
        "meta_classification_type": "U",
        "meta_norad_cat_id": 34554,
        "meta_element_set_no": 999,
        "meta_rev_at_epoch": 87920,
        "meta_bstar": 0.00030656362,
        "meta_mean_motion_dot": 9.03e-06,
        "meta_mean_motion_ddot": 0,
        "tle_line1": "1 34554U 93036UQ  25358.20776214  .00000903  00000+0  30656-3 0  9998",
        "tle_line2": "2 34554  74.0390 277.8748 0023501 338.0464 172.7523 14.37960324879200"
      },
      "geometry": {
        "type": "Point",
        "coordinates": [
          -147.85991117013518,
          -72.42968382035761
        ]
      }
    },
    {
      "type": "Feature",
      "properties": {
        "norad_id": 34556,
        "name": "COSMOS 2251 DEB",
        "group": "cosmos-2251-debris",
        "lat": 10.504731812166067,
        "lon": 104.21703959594907,
        "alt_km": 640.2449016556347,
        "timestamp": "2025-12-24T18:55:56.466412+00:00",
        "meta_object_name": "COSMOS 2251 DEB",
        "meta_object_id": "1993-036US",
        "meta_epoch": "2025-12-23T07:17:17.327328",
        "meta_mean_motion": 14.78109579,
        "meta_eccentricity": 0.00064714,
        "meta_inclination": 74.0161,
        "meta_ra_of_asc_node": 104.0894,
        "meta_arg_of_pericenter": 163.8101,
        "meta_mean_anomaly": 227.5326,
        "meta_ephemeris_type": 0,
        "meta_classification_type": "U",
        "meta_norad_cat_id": 34556,
        "meta_element_set_no": 999,
        "meta_rev_at_epoch": 88485,
        "meta_bstar": 0.0023118046,
        "meta_mean_motion_dot": 0.00016741,
        "meta_mean_motion_ddot": 0,
        "tle_line1": "1 34556U 93036US  25357.30367277  .00016741  00000+0  23118-2 0  9996",
        "tle_line2": "2 34556  74.0161 104.0894 0006471 163.8101 227.5326 14.78109579884859"
      },
      "geometry": {
        "type": "Point",
        "coordinates": [
          104.21703959594907,
          10.504731812166067
        ]
      }
    }
  ]
}